[{"OBJECT_NAME":"LEMUR-2-ANDIS","OBJECT_ID":"2017-042P","EPOCH":"2026-03-09T13:25:33.116448","MEAN_MOTION":15.30557934,"ECCENTRICITY":0.0009101,"INCLINATION":97.3659,"RA_OF_ASC_NODE":249.795,"ARG_OF_PERICENTER":4.3248,"MEAN_ANOMALY":355.807,"EPHEMERIS_TYPE":0,"CLASSIFICATION_TYPE":"U","NORAD_CAT_ID":42838,"ELEMENT_SET_NO":999,"REV_AT_EPOCH":47319,"BSTAR":0.00079875,"MEAN_MOTION_DOT":0.00023598,"MEAN_MOTION_DDOT":0},{"OBJECT_NAME":"STARLINK-33912","OBJECT_ID":"2025-110M","EPOCH":"2026-03-09T07:27:39.389184","MEAN_MOTION":15.30193193,"ECCENTRICITY":0.00011879,"INCLINATION":53.1604,"RA_OF_ASC_NODE":28.5824,"ARG_OF_PERICENTER":87.8948,"MEAN_ANOMALY":272.2189,"EPHEMERIS_TYPE":0,"CLASSIFICATION_TYPE":"U","NORAD_CAT_ID":64107,"ELEMENT_SET_NO":999,"REV_AT_EPOCH":4582,"BSTAR":0.0010139502,"MEAN_MOTION_DOT":0.00029785,"MEAN_MOTION_DDOT":0}]
