LEMUR-2-ANDIS           
1 42838U 17042P   26068.55941107  .00023598  00000+0  79875-3 0  9998
2 42838  97.3659 249.7950 0009101   4.3248 355.8070 15.30557934473198
STARLINK-33912          
1 64107U 25110M   26068.31087256  .00029785  00000+0  10140-2 0  9999
2 64107  53.1604  28.5824 0001187  87.8948 272.2189 15.30193193 45824
